[{"OBJECT_NAME":"STARLINK-35248","OBJECT_ID":"2025-207G","EPOCH":"2026-03-09T18:08:31.960608","MEAN_MOTION":15.05641646,"ECCENTRICITY":0.00013051,"INCLINATION":97.6017,"RA_OF_ASC_NODE":138.7639,"ARG_OF_PERICENTER":89.837,"MEAN_ANOMALY":270.3006,"EPHEMERIS_TYPE":0,"CLASSIFICATION_TYPE":"U","NORAD_CAT_ID":65598,"ELEMENT_SET_NO":999,"REV_AT_EPOCH":2827,"BSTAR":0.00054177071,"MEAN_MOTION_DOT":7.763e-5,"MEAN_MOTION_DDOT":0},{"OBJECT_NAME":"SL-24 DEB","OBJECT_ID":"2007-028C","EPOCH":"2026-03-09T19:18:34.668288","MEAN_MOTION":13.26386106,"ECCENTRICITY":0.08142909,"INCLINATION":64.528,"RA_OF_ASC_NODE":235.2459,"ARG_OF_PERICENTER":100.7313,"MEAN_ANOMALY":268.6376,"EPHEMERIS_TYPE":0,"CLASSIFICATION_TYPE":"U","NORAD_CAT_ID":31791,"ELEMENT_SET_NO":999,"REV_AT_EPOCH":90482,"BSTAR":0.00011847102,"MEAN_MOTION_DOT":2.38e-6,"MEAN_MOTION_DDOT":0}]
